CCSDS_OMM_VERS = 2.0
CREATION_DATE  = 
ORIGINATOR     = 

OBJECT_NAME    = STARLINK-36489
OBJECT_ID      = 2026-002Z
CENTER_NAME    = EARTH
REF_FRAME      = TEME
TIME_SYSTEM    = UTC
MEAN_ELEMENT_THEORY = SGP/SGP4

EPOCH          = 2026-01-14T22:00:00.999936
MEAN_MOTION    = 15.89474789
ECCENTRICITY   = .00016033
INCLINATION    = 42.9978
RA_OF_ASC_NODE = 276.2237
ARG_OF_PERICENTER = 266.7327
MEAN_ANOMALY   = 33.6372

EPHEMERIS_TYPE = 0
CLASSIFICATION_TYPE = U
NORAD_CAT_ID   = 67328
ELEMENT_SET_NO = 999
REV_AT_EPOCH   = 293
BSTAR          = -.57817638E-2
MEAN_MOTION_DOT = -.1512996E-1
MEAN_MOTION_DDOT = 0

CCSDS_OMM_VERS = 2.0
CREATION_DATE  = 
ORIGINATOR     = 

OBJECT_NAME    = STARLINK-36496
OBJECT_ID      = 2026-002AA
CENTER_NAME    = EARTH
REF_FRAME      = TEME
TIME_SYSTEM    = UTC
MEAN_ELEMENT_THEORY = SGP/SGP4

EPOCH          = 2026-01-14T22:00:00.999936
MEAN_MOTION    = 15.89507332
ECCENTRICITY   = .00016207
INCLINATION    = 42.9979
RA_OF_ASC_NODE = 276.2105
ARG_OF_PERICENTER = 264.9636
MEAN_ANOMALY   = 40.5743

EPHEMERIS_TYPE = 0
CLASSIFICATION_TYPE = U
NORAD_CAT_ID   = 67329
ELEMENT_SET_NO = 999
REV_AT_EPOCH   = 275
BSTAR          = -.58302003E-2
MEAN_MOTION_DOT = -.1558948E-1
MEAN_MOTION_DDOT = 0

CCSDS_OMM_VERS = 2.0
CREATION_DATE  = 
ORIGINATOR     = 

OBJECT_NAME    = STARLINK-36483
OBJECT_ID      = 2026-002AB
CENTER_NAME    = EARTH
REF_FRAME      = TEME
TIME_SYSTEM    = UTC
MEAN_ELEMENT_THEORY = SGP/SGP4

EPOCH          = 2026-01-14T22:00:00.999936
MEAN_MOTION    = 15.89501996
ECCENTRICITY   = .00018285
INCLINATION    = 42.9980
RA_OF_ASC_NODE = 276.1941
ARG_OF_PERICENTER = 267.3753
MEAN_ANOMALY   = 44.4824

EPHEMERIS_TYPE = 0
CLASSIFICATION_TYPE = U
NORAD_CAT_ID   = 67330
ELEMENT_SET_NO = 999
REV_AT_EPOCH   = 293
BSTAR          = -.59248162E-2
MEAN_MOTION_DOT = -.1580978E-1
MEAN_MOTION_DDOT = 0

CCSDS_OMM_VERS = 2.0
CREATION_DATE  = 
ORIGINATOR     = 

OBJECT_NAME    = STARLINK-36494
OBJECT_ID      = 2026-002AC
CENTER_NAME    = EARTH
REF_FRAME      = TEME
TIME_SYSTEM    = UTC
MEAN_ELEMENT_THEORY = SGP/SGP4

EPOCH          = 2026-01-14T22:00:00.999936
MEAN_MOTION    = 15.89483574
ECCENTRICITY   = .0001654
INCLINATION    = 42.9979
RA_OF_ASC_NODE = 276.2166
ARG_OF_PERICENTER = 262.1256
MEAN_ANOMALY   = 40.9776

EPHEMERIS_TYPE = 0
CLASSIFICATION_TYPE = U
NORAD_CAT_ID   = 67331
ELEMENT_SET_NO = 999
REV_AT_EPOCH   = 293
BSTAR          = -.57979802E-2
MEAN_MOTION_DOT = -.1549723E-1
MEAN_MOTION_DDOT = 0

CCSDS_OMM_VERS = 2.0
CREATION_DATE  = 
ORIGINATOR     = 

OBJECT_NAME    = STARLINK-36492
OBJECT_ID      = 2026-002AD
CENTER_NAME    = EARTH
REF_FRAME      = TEME
TIME_SYSTEM    = UTC
MEAN_ELEMENT_THEORY = SGP/SGP4

EPOCH          = 2026-01-14T22:00:00.999936
MEAN_MOTION    = 15.89479406
ECCENTRICITY   = .00016899
INCLINATION    = 42.9980
RA_OF_ASC_NODE = 276.1993
ARG_OF_PERICENTER = 261.1942
MEAN_ANOMALY   = 48.5793

EPHEMERIS_TYPE = 0
CLASSIFICATION_TYPE = U
NORAD_CAT_ID   = 67332
ELEMENT_SET_NO = 999
REV_AT_EPOCH   = 293
BSTAR          = -.59135482E-2
MEAN_MOTION_DOT = -.1576603E-1
MEAN_MOTION_DDOT = 0

CCSDS_OMM_VERS = 2.0
CREATION_DATE  = 
ORIGINATOR     = 

OBJECT_NAME    = STARLINK-36427
OBJECT_ID      = 2026-002AE
CENTER_NAME    = EARTH
REF_FRAME      = TEME
TIME_SYSTEM    = UTC
MEAN_ELEMENT_THEORY = SGP/SGP4

EPOCH          = 2026-01-14T22:00:00.999936
MEAN_MOTION    = 15.96909746
ECCENTRICITY   = .00018331
INCLINATION    = 42.9969
RA_OF_ASC_NODE = 275.9177
ARG_OF_PERICENTER = 276.8473
MEAN_ANOMALY   = 143.8410

EPHEMERIS_TYPE = 0
CLASSIFICATION_TYPE = U
NORAD_CAT_ID   = 67333
ELEMENT_SET_NO = 999
REV_AT_EPOCH   = 283
BSTAR          = -.34948274E-2
MEAN_MOTION_DOT = -.1558255E-1
MEAN_MOTION_DDOT = .71485124E-3

CCSDS_OMM_VERS = 2.0
CREATION_DATE  = 
ORIGINATOR     = 

OBJECT_NAME    = SHIJIAN-29B (SJ-29B)
OBJECT_ID      = 2025-315C
CENTER_NAME    = EARTH
REF_FRAME      = TEME
TIME_SYSTEM    = UTC
MEAN_ELEMENT_THEORY = SGP/SGP4

EPOCH          = 2026-01-14T21:18:52.125984
MEAN_MOTION    = 1.00271801
ECCENTRICITY   = .000081
INCLINATION    = 3.0098
RA_OF_ASC_NODE = 99.1653
ARG_OF_PERICENTER = 330.8798
MEAN_ANOMALY   = 77.1103

EPHEMERIS_TYPE = 0
CLASSIFICATION_TYPE = U
NORAD_CAT_ID   = 67403
ELEMENT_SET_NO = 999
REV_AT_EPOCH   = 15
BSTAR          = 0
MEAN_MOTION_DOT = -.51E-6
MEAN_MOTION_DDOT = 0

CCSDS_OMM_VERS = 2.0
CREATION_DATE  = 
ORIGINATOR     = 

OBJECT_NAME    = YAOGAN-50 01
OBJECT_ID      = 2026-006A
CENTER_NAME    = EARTH
REF_FRAME      = TEME
TIME_SYSTEM    = UTC
MEAN_ELEMENT_THEORY = SGP/SGP4

EPOCH          = 2026-01-14T23:38:06.923904
MEAN_MOTION    = 14.21836273
ECCENTRICITY   = .01649726
INCLINATION    = 141.9982
RA_OF_ASC_NODE = 194.6316
ARG_OF_PERICENTER = 115.5357
MEAN_ANOMALY   = 246.2522

EPHEMERIS_TYPE = 0
CLASSIFICATION_TYPE = U
NORAD_CAT_ID   = 67433
ELEMENT_SET_NO = 999
REV_AT_EPOCH   = 20
BSTAR          = .22860698E-3
MEAN_MOTION_DOT = .8E-5
MEAN_MOTION_DDOT = 0

CCSDS_OMM_VERS = 2.0
CREATION_DATE  = 
ORIGINATOR     = 

OBJECT_NAME    = CZ-6A R/B
OBJECT_ID      = 2026-006B
CENTER_NAME    = EARTH
REF_FRAME      = TEME
TIME_SYSTEM    = UTC
MEAN_ELEMENT_THEORY = SGP/SGP4

EPOCH          = 2026-01-13T17:12:57.362112
MEAN_MOTION    = 14.62247694
ECCENTRICITY   = .02017257
INCLINATION    = 142.0438
RA_OF_ASC_NODE = 188.1412
ARG_OF_PERICENTER = 82.0696
MEAN_ANOMALY   = 280.2897

EPHEMERIS_TYPE = 0
CLASSIFICATION_TYPE = U
NORAD_CAT_ID   = 67434
ELEMENT_SET_NO = 999
REV_AT_EPOCH   = 2
BSTAR          = .30805067E-4
MEAN_MOTION_DOT = .541E-5
MEAN_MOTION_DDOT = 0

CCSDS_OMM_VERS = 2.0
CREATION_DATE  = 
ORIGINATOR     = 

OBJECT_NAME    = HULIANWANG DIGUI 18A
OBJECT_ID      = 2026-007A
CENTER_NAME    = EARTH
REF_FRAME      = TEME
TIME_SYSTEM    = UTC
MEAN_ELEMENT_THEORY = SGP/SGP4

EPOCH          = 2026-01-14T01:07:54.134976
MEAN_MOTION    = 13.92612775
ECCENTRICITY   = .0008512
INCLINATION    = 50.0150
RA_OF_ASC_NODE = 292.8601
ARG_OF_PERICENTER = 274.9717
MEAN_ANOMALY   = 85.0211

EPHEMERIS_TYPE = 0
CLASSIFICATION_TYPE = U
NORAD_CAT_ID   = 67435
ELEMENT_SET_NO = 999
REV_AT_EPOCH   = 6
BSTAR          = .14297E-4
MEAN_MOTION_DOT = -.128E-5
MEAN_MOTION_DDOT = 0

CCSDS_OMM_VERS = 2.0
CREATION_DATE  = 
ORIGINATOR     = 

OBJECT_NAME    = HULIANWANG DIGUI 18B
OBJECT_ID      = 2026-007B
CENTER_NAME    = EARTH
REF_FRAME      = TEME
TIME_SYSTEM    = UTC
MEAN_ELEMENT_THEORY = SGP/SGP4

EPOCH          = 2026-01-13T21:41:15.785088
MEAN_MOTION    = 13.92454399
ECCENTRICITY   = .0009652
INCLINATION    = 50.0165
RA_OF_ASC_NODE = 293.4472
ARG_OF_PERICENTER = 261.3170
MEAN_ANOMALY   = 98.6636

EPHEMERIS_TYPE = 0
CLASSIFICATION_TYPE = U
NORAD_CAT_ID   = 67436
ELEMENT_SET_NO = 999
REV_AT_EPOCH   = 4
BSTAR          = .12827E-4
MEAN_MOTION_DOT = -.13E-5
MEAN_MOTION_DDOT = 0

CCSDS_OMM_VERS = 2.0
CREATION_DATE  = 
ORIGINATOR     = 

OBJECT_NAME    = HULIANWANG DIGUI 18C
OBJECT_ID      = 2026-007C
CENTER_NAME    = EARTH
REF_FRAME      = TEME
TIME_SYSTEM    = UTC
MEAN_ELEMENT_THEORY = SGP/SGP4

EPOCH          = 2026-01-14T23:31:22.403424
MEAN_MOTION    = 13.92511281
ECCENTRICITY   = .00081406
INCLINATION    = 50.0031
RA_OF_ASC_NODE = 289.1342
ARG_OF_PERICENTER = 270.5188
MEAN_ANOMALY   = 89.4779

EPHEMERIS_TYPE = 0
CLASSIFICATION_TYPE = U
NORAD_CAT_ID   = 67437
ELEMENT_SET_NO = 999
REV_AT_EPOCH   = 19
BSTAR          = .15432242E-4
MEAN_MOTION_DOT = -.127E-5
MEAN_MOTION_DDOT = 0

