STARLINK-36489          
1 67328U 26002Z   26014.91667824 -.01512996  00000+0 -57818-2 0  9997
2 67328  42.9978 276.2237 0001603 266.7327  33.6372 15.89474789  2939
STARLINK-36496          
1 67329U 26002AA  26014.91667824 -.01558948  00000+0 -58302-2 0  9994
2 67329  42.9979 276.2105 0001620 264.9636  40.5743 15.89507332  2757
STARLINK-36483          
1 67330U 26002AB  26014.91667824 -.01580978  00000+0 -59248-2 0  9994
2 67330  42.9980 276.1941 0001828 267.3753  44.4824 15.89501996  2938
STARLINK-36494          
1 67331U 26002AC  26014.91667824 -.01549723  00000+0 -57980-2 0  9999
2 67331  42.9979 276.2166 0001654 262.1256  40.9776 15.89483574  2933
STARLINK-36492          
1 67332U 26002AD  26014.91667824 -.01576603  00000+0 -59135-2 0  9991
2 67332  42.9980 276.1993 0001689 261.1942  48.5793 15.89479406  2934
STARLINK-36427          
1 67333U 26002AE  26014.91667824 -.01558255  71485-3 -34948-2 0  9999
2 67333  42.9969 275.9177 0001833 276.8473 143.8410 15.96909746  2833
SHIJIAN-29B (SJ-29B)    
1 67403U 25315C   26014.88810331 -.00000051  00000+0  00000+0 0  9996
2 67403   3.0098  99.1653 0000810 330.8798  77.1103  1.00271801   157
YAOGAN-50 01            
1 67433U 26006A   26014.98480236  .00000800  00000+0  22861-3 0  9999
2 67433 141.9982 194.6316 0164972 115.5357 246.2522 14.21836273   207
CZ-6A R/B               
1 67434U 26006B   26013.71733058  .00000541  00000+0  30805-4 0  9993
2 67434 142.0438 188.1412 0201725  82.0696 280.2897 14.62247694    24
HULIANWANG DIGUI 18A    
1 67435U 26007A   26014.04715434 -.00000128  00000+0  14297-4 0  9999
2 67435  50.0150 292.8601 0008512 274.9717  85.0211 13.92612775    65
HULIANWANG DIGUI 18B    
1 67436U 26007B   26013.90365492 -.00000130  00000+0  12827-4 0  9999
2 67436  50.0165 293.4472 0009652 261.3170  98.6636 13.92454399    49
HULIANWANG DIGUI 18C    
1 67437U 26007C   26014.98012041 -.00000127  00000+0  15432-4 0  9999
2 67437  50.0031 289.1342 0008140 270.5188  89.4779 13.92511281   198
